{
    "links": {
        "self": "http://www.neowsapp.com/rest/v1/neo/3695417?api_key=iIulBulltgU6a56xZRHN4H3l9WmuAYTsLGpBGhQ2"
    },
    "id": "3695417",
    "neo_reference_id": "3695417",
    "name": "(2014 UE176)",
    "designation": "2014 UE176",
    "nasa_jpl_url": "http://ssd.jpl.nasa.gov/sbdb.cgi?sstr=3695417",
    "absolute_magnitude_h": 23.4,
    "estimated_diameter": {
        "kilometers": {
            "estimated_diameter_min": 0.0555334912,
            "estimated_diameter_max": 0.1241766613
        },
        "meters": {
            "estimated_diameter_min": 55.5334911581,
            "estimated_diameter_max": 124.1766612574
        },
        "miles": {
            "estimated_diameter_min": 0.0345069009,
            "estimated_diameter_max": 0.0771597762
        },
        "feet": {
            "estimated_diameter_min": 182.1964991311,
            "estimated_diameter_max": 407.4037573197
        }
    },
    "is_potentially_hazardous_asteroid": false,
    "close_approach_data": [
        {
            "close_approach_date": "2006-11-27",
            "close_approach_date_full": "2006-Nov-27 08:29",
            "epoch_date_close_approach": 1164616140000,
            "relative_velocity": {
                "kilometers_per_second": "18.4389371236",
                "kilometers_per_hour": "66380.1736448174",
                "miles_per_hour": "41246.0584516923"
            },
            "miss_distance": {
                "astronomical": "0.4606280859",
                "lunar": "179.1843254151",
                "kilometers": "68908980.512817033",
                "miles": "42818054.9910717354"
            },
            "orbiting_body": "Earth"
        },
        {
            "close_approach_date": "2010-11-12",
            "close_approach_date_full": "2010-Nov-12 08:58",
            "epoch_date_close_approach": 1289552280000,
            "relative_velocity": {
                "kilometers_per_second": "11.2125707773",
                "kilometers_per_hour": "40365.2547983689",
                "miles_per_hour": "25081.3995717976"
            },
            "miss_distance": {
                "astronomical": "0.2232958906",
                "lunar": "86.8621014434",
                "kilometers": "33404589.613513022",
                "miles": "20756649.4872108236"
            },
            "orbiting_body": "Earth"
        },
        {
            "close_approach_date": "2014-10-19",
            "close_approach_date_full": "2014-Oct-19 14:59",
            "epoch_date_close_approach": 1413730740000,
            "relative_velocity": {
                "kilometers_per_second": "6.1313005974",
                "kilometers_per_hour": "22072.6821507333",
                "miles_per_hour": "13715.1063063821"
            },
            "miss_distance": {
                "astronomical": "0.0995194343",
                "lunar": "38.7130599427",
                "kilometers": "14887895.394884941",
                "miles": "9250909.2280205458"
            },
            "orbiting_body": "Earth"
        },
        {
            "close_approach_date": "2018-09-18",
            "close_approach_date_full": "2018-Sep-18 19:00",
            "epoch_date_close_approach": 1537297200000,
            "relative_velocity": {
                "kilometers_per_second": "10.4024559952",
                "kilometers_per_hour": "37448.8415827276",
                "miles_per_hour": "23269.2538156676"
            },
            "miss_distance": {
                "astronomical": "0.193231784",
                "lunar": "75.167163976",
                "kilometers": "28907063.30270008",
                "miles": "17962016.226537904"
            },
            "orbiting_body": "Earth"
        },
        {
            "close_approach_date": "2022-08-25",
            "close_approach_date_full": "2022-Aug-25 20:54",
            "epoch_date_close_approach": 1661460840000,
            "relative_velocity": {
                "kilometers_per_second": "20.2610068287",
                "kilometers_per_hour": "72939.6245834255",
                "miles_per_hour": "45321.8461751846"
            },
            "miss_distance": {
                "astronomical": "0.4992447122",
                "lunar": "194.2061930458",
                "kilometers": "74685945.553883014",
                "miles": "46407694.6137890332"
            },
            "orbiting_body": "Earth"
        }
    ],
    "orbital_data": {
        "orbit_id": "12",
        "orbit_determination_date": "2017-04-06 08:37:41",
        "first_observation_date": "2014-10-29",
        "last_observation_date": "2014-11-30",
        "data_arc_in_days": 32,
        "observations_used": 74,
        "orbit_uncertainty": "7",
        "minimum_orbit_intersection": ".0872415",
        "jupiter_tisserand_invariant": "3.217",
        "epoch_osculation": "2459000.5",
        "eccentricity": ".5718618852843136",
        "semi_major_axis": "2.498479031045451",
        "inclination": "3.475796509692692",
        "ascending_node_longitude": "252.3866482678026",
        "orbital_period": "1442.487273430604",
        "perihelion_distance": "1.069694102008474",
        "perihelion_argument": "131.8517552075012",
        "aphelion_distance": "3.927263960082427",
        "perihelion_time": "2458398.458697853042",
        "mean_anomaly": "150.2508013519272",
        "mean_motion": ".2495689262781693",
        "equinox": "J2000",
        "orbit_class": {
            "orbit_class_type": "AMO",
            "orbit_class_description": "Near-Earth asteroid orbits similar to that of 1221 Amor",
            "orbit_class_range": "1.017 AU < q (perihelion) < 1.3 AU"
        }
    },
    "is_sentry_object": false
}